start=new Date('2022-05-29T00:00:00.000Z').valueOf();
sats=[{"LAUNCH_DATE":"2021-09-14","PERIOD":"96.212","RA_OF_ASC_NODE":"155.2963","TLE_LINE1":"1 49163U 21082AK  22148.91667824  .00059402  00000-0  51564-2 0  9999","ECCENTRICITY":"0.00032230","MEAN_MOTION_DDOT":"0.0000000000000","OBJECT_NAME":"STARLINK-3088","MEAN_MOTION":"14.96695843","CENTER_NAME":"EARTH","NORAD_CAT_ID":"49163","CLASSIFICATION_TYPE":"U","ELEMENT_SET_NO":"999","EPOCH":"2022-05-28T22:00:00.999936","BSTAR":"0.00515640000000","MEAN_ELEMENT_THEORY":"SGP4","SITE":"AFWTR","PERIAPSIS":"574.874","OBJECT_TYPE":"PAYLOAD","APOAPSIS":"579.358","EPHEMERIS_TYPE":"0","COUNTRY_CODE":"US","TLE_LINE2":"2 49163  69.9995 155.2963 0003223 268.9168 254.7761 14.96695843  1304","MEAN_ANOMALY":"254.7761","SEMIMAJOR_AXIS":"6955.251","OBJECT_ID":"2021-082AK","TIME_SYSTEM":"UTC","INCLINATION":"69.9995","ARG_OF_PERICENTER":"268.9168","FILE":"3469840","GP_ID":"204805868","REV_AT_EPOCH":"130","MEAN_MOTION_DOT":"0.00059402","DECAY_DATE":null,"RCS_SIZE":"LARGE","REF_FRAME":"TEME"},{"MEAN_ANOMALY":"300.5390","SEMIMAJOR_AXIS":"6955.291","OBJECT_ID":"2021-082AL","INCLINATION":"69.9992","TIME_SYSTEM":"UTC","FILE":"3469840","ARG_OF_PERICENTER":"275.4383","GP_ID":"204806119","DECAY_DATE":null,"REV_AT_EPOCH":"130","MEAN_MOTION_DOT":"0.00056954","RCS_SIZE":"LARGE","REF_FRAME":"TEME","LAUNCH_DATE":"2021-09-14","PERIOD":"96.213","RA_OF_ASC_NODE":"155.2850","TLE_LINE1":"1 49164U 21082AL  22148.91667824  .00056954  00000-0  49475-2 0  9997","ECCENTRICITY":"0.00033430","MEAN_MOTION_DDOT":"0.0000000000000","OBJECT_NAME":"STARLINK-3106","MEAN_MOTION":"14.96683057","CENTER_NAME":"EARTH","CLASSIFICATION_TYPE":"U","NORAD_CAT_ID":"49164","MEAN_ELEMENT_THEORY":"SGP4","BSTAR":"0.00494750000000","EPOCH":"2022-05-28T22:00:00.999936","ELEMENT_SET_NO":"999","OBJECT_TYPE":"PAYLOAD","PERIAPSIS":"574.830","SITE":"AFWTR","COUNTRY_CODE":"US","TLE_LINE2":"2 49164  69.9992 155.2850 0003343 275.4383 300.5390 14.96683057  1304","APOAPSIS":"579.481","EPHEMERIS_TYPE":"0"},{"ARG_OF_PERICENTER":"273.9456","FILE":"3469840","GP_ID":"204806364","REV_AT_EPOCH":"4033","MEAN_MOTION_DOT":"-0.00000125","DECAY_DATE":null,"REF_FRAME":"TEME","RCS_SIZE":"LARGE","MEAN_ANOMALY":"86.1340","SEMIMAJOR_AXIS":"6950.193","OBJECT_ID":"2021-082AM","TIME_SYSTEM":"UTC","INCLINATION":"69.9968","CENTER_NAME":"EARTH","NORAD_CAT_ID":"49165","CLASSIFICATION_TYPE":"U","ELEMENT_SET_NO":"999","EPOCH":"2022-05-28T19:20:40.402752","BSTAR":"-0.00000268620000","MEAN_ELEMENT_THEORY":"SGP4","SITE":"AFWTR","OBJECT_TYPE":"PAYLOAD","PERIAPSIS":"569.849","EPHEMERIS_TYPE":"0","APOAPSIS":"574.266","COUNTRY_CODE":"US","TLE_LINE2":"2 49165  69.9968 176.1389 0003178 273.9456  86.1340 14.98330077 40338","LAUNCH_DATE":"2021-09-14","PERIOD":"96.107","RA_OF_ASC_NODE":"176.1389","TLE_LINE1":"1 49165U 21082AM  22148.80602318 -.00000125  00000-0 -26862-5 0  9992","OBJECT_NAME":"STARLINK-3052","MEAN_MOTION_DDOT":"0.0000000000000","ECCENTRICITY":"0.00031780","MEAN_MOTION":"14.98330077"},{"REF_FRAME":"TEME","RCS_SIZE":"LARGE","MEAN_MOTION_DOT":"0.00057671","REV_AT_EPOCH":"130","DECAY_DATE":null,"GP_ID":"204805618","ARG_OF_PERICENTER":"263.6987","FILE":"3469840","INCLINATION":"69.9983","TIME_SYSTEM":"UTC","OBJECT_ID":"2021-082AN","SEMIMAJOR_AXIS":"6955.259","MEAN_ANOMALY":"286.0125","APOAPSIS":"579.393","EPHEMERIS_TYPE":"0","COUNTRY_CODE":"US","TLE_LINE2":"2 49166  69.9983 155.2885 0003262 263.6987 286.0125 14.96693214  1303","SITE":"AFWTR","PERIAPSIS":"574.855","OBJECT_TYPE":"PAYLOAD","EPOCH":"2022-05-28T22:00:00.999936","ELEMENT_SET_NO":"999","MEAN_ELEMENT_THEORY":"SGP4","BSTAR":"0.00500790000000","NORAD_CAT_ID":"49166","CLASSIFICATION_TYPE":"U","CENTER_NAME":"EARTH","MEAN_MOTION":"14.96693214","OBJECT_NAME":"STARLINK-3089","MEAN_MOTION_DDOT":"0.0000000000000","ECCENTRICITY":"0.00032620","RA_OF_ASC_NODE":"155.2885","TLE_LINE1":"1 49166U 21082AN  22148.91667824  .00057671  00000-0  50079-2 0  9998","PERIOD":"96.212","LAUNCH_DATE":"2021-09-14"},{"GP_ID":"204805368","FILE":"3469840","ARG_OF_PERICENTER":"271.2686","REF_FRAME":"TEME","RCS_SIZE":"LARGE","DECAY_DATE":null,"MEAN_MOTION_DOT":"0.00000043","REV_AT_EPOCH":"4033","MEAN_ANOMALY":"88.8100","OBJECT_ID":"2021-082AP","TIME_SYSTEM":"UTC","INCLINATION":"69.9986","SEMIMAJOR_AXIS":"6950.181","MEAN_ELEMENT_THEORY":"SGP4","BSTAR":"0.00001142500000","ELEMENT_SET_NO":"999","EPOCH":"2022-05-28T19:13:48.096768","CENTER_NAME":"EARTH","CLASSIFICATION_TYPE":"U","NORAD_CAT_ID":"49167","COUNTRY_CODE":"US","TLE_LINE2":"2 49167  69.9986 176.1589 0003258 271.2686  88.8100 14.98333987 40333","EPHEMERIS_TYPE":"0","APOAPSIS":"574.310","OBJECT_TYPE":"PAYLOAD","PERIAPSIS":"569.781","SITE":"AFWTR","PERIOD":"96.107","LAUNCH_DATE":"2021-09-14","MEAN_MOTION":"14.98333987","RA_OF_ASC_NODE":"176.1589","TLE_LINE1":"1 49167U 21082AP  22148.80125112  .00000043  00000-0  11425-4 0  9991","MEAN_MOTION_DDOT":"0.0000000000000","ECCENTRICITY":"0.00032580","OBJECT_NAME":"STARLINK-3054"},{"SEMIMAJOR_AXIS":"6955.274","INCLINATION":"69.9988","TIME_SYSTEM":"UTC","OBJECT_ID":"2021-082AQ","MEAN_ANOMALY":"3.8114","REV_AT_EPOCH":"130","MEAN_MOTION_DOT":"0.00059493","DECAY_DATE":null,"REF_FRAME":"TEME","RCS_SIZE":"LARGE","ARG_OF_PERICENTER":"264.5659","FILE":"3469840","GP_ID":"204806620","ECCENTRICITY":"0.00030850","MEAN_MOTION_DDOT":"0.0000000000000","OBJECT_NAME":"STARLINK-3101","RA_OF_ASC_NODE":"155.2934","TLE_LINE1":"1 49168U 21082AQ  22148.91667824  .00059493  00000-0  51652-2 0  9992","MEAN_MOTION":"14.96688339","LAUNCH_DATE":"2021-09-14","PERIOD":"96.212","SITE":"AFWTR","OBJECT_TYPE":"PAYLOAD","PERIAPSIS":"574.994","EPHEMERIS_TYPE":"0","APOAPSIS":"579.285","COUNTRY_CODE":"US","TLE_LINE2":"2 49168  69.9988 155.2934 0003085 264.5659   3.8114 14.96688339  1309","NORAD_CAT_ID":"49168","CLASSIFICATION_TYPE":"U","CENTER_NAME":"EARTH","ELEMENT_SET_NO":"999","EPOCH":"2022-05-28T22:00:00.999936","MEAN_ELEMENT_THEORY":"SGP4","BSTAR":"0.00516520000000"},{"LAUNCH_DATE":"2021-09-14","PERIOD":"96.211","RA_OF_ASC_NODE":"155.2918","TLE_LINE1":"1 49169U 21082AR  22148.91667824  .00044512  00000-0  38731-2 0  9992","OBJECT_NAME":"STARLINK-3046","MEAN_MOTION_DDOT":"0.0000000000000","ECCENTRICITY":"0.00032710","MEAN_MOTION":"14.96705704","CENTER_NAME":"EARTH","NORAD_CAT_ID":"49169","CLASSIFICATION_TYPE":"U","EPOCH":"2022-05-28T22:00:00.999936","ELEMENT_SET_NO":"999","MEAN_ELEMENT_THEORY":"SGP4","BSTAR":"0.00387310000000","SITE":"AFWTR","OBJECT_TYPE":"PAYLOAD","PERIAPSIS":"574.810","APOAPSIS":"579.360","EPHEMERIS_TYPE":"0","COUNTRY_CODE":"US","TLE_LINE2":"2 49169  69.9993 155.2918 0003271 264.1051 338.2214 14.96705704  1309","MEAN_ANOMALY":"338.2214","SEMIMAJOR_AXIS":"6955.220","OBJECT_ID":"2021-082AR","INCLINATION":"69.9993","TIME_SYSTEM":"UTC","ARG_OF_PERICENTER":"264.1051","FILE":"3469840","GP_ID":"204806865","MEAN_MOTION_DOT":"0.00044512","REV_AT_EPOCH":"130","DECAY_DATE":null,"REF_FRAME":"TEME","RCS_SIZE":"LARGE"},{"OBJECT_NAME":"STARLINK-3074","MEAN_MOTION_DDOT":"0.0000000000000","ECCENTRICITY":"0.00031890","RA_OF_ASC_NODE":"175.8635","TLE_LINE1":"1 49170U 21082AS  22148.91667824  .00068481  00000-0  56957-2 0  9995","MEAN_MOTION":"14.98299056","LAUNCH_DATE":"2021-09-14","PERIOD":"96.109","PERIAPSIS":"569.937","OBJECT_TYPE":"PAYLOAD","SITE":"AFWTR","TLE_LINE2":"2 49170  69.9991 175.8635 0003189 271.6940 130.4201 14.98299056  1309","COUNTRY_CODE":"US","APOAPSIS":"574.370","EPHEMERIS_TYPE":"0","CLASSIFICATION_TYPE":"U","NORAD_CAT_ID":"49170","CENTER_NAME":"EARTH","BSTAR":"0.00569570000000","MEAN_ELEMENT_THEORY":"SGP4","EPOCH":"2022-05-28T22:00:00.999936","ELEMENT_SET_NO":"999","SEMIMAJOR_AXIS":"6950.289","INCLINATION":"69.9991","TIME_SYSTEM":"UTC","OBJECT_ID":"2021-082AS","MEAN_ANOMALY":"130.4201","DECAY_DATE":null,"MEAN_MOTION_DOT":"0.00068481","REV_AT_EPOCH":"130","REF_FRAME":"TEME","RCS_SIZE":"LARGE","FILE":"3469840","ARG_OF_PERICENTER":"271.6940","GP_ID":"204805118"},{"MEAN_MOTION_DDOT":"0.0000000000000","OBJECT_NAME":"STARLINK-3107","ECCENTRICITY":"0.00030850","RA_OF_ASC_NODE":"176.1776","TLE_LINE1":"1 49171U 21082AT  22148.79442991  .00001702  00000-0  15039-3 0  9998","MEAN_MOTION":"14.98334676","LAUNCH_DATE":"2021-09-14","PERIOD":"96.107","SITE":"AFWTR","OBJECT_TYPE":"PAYLOAD","PERIAPSIS":"569.899","EPHEMERIS_TYPE":"0","APOAPSIS":"574.188","TLE_LINE2":"2 49171  69.9982 176.1776 0003085 276.3274  83.7534 14.98334676 40295","COUNTRY_CODE":"US","NORAD_CAT_ID":"49171","CLASSIFICATION_TYPE":"U","CENTER_NAME":"EARTH","ELEMENT_SET_NO":"999","EPOCH":"2022-05-28T19:03:58.744224","BSTAR":"0.00015039000000","MEAN_ELEMENT_THEORY":"SGP4","SEMIMAJOR_AXIS":"6950.178","TIME_SYSTEM":"UTC","INCLINATION":"69.9982","OBJECT_ID":"2021-082AT","MEAN_ANOMALY":"83.7534","MEAN_MOTION_DOT":"0.00001702","REV_AT_EPOCH":"4029","DECAY_DATE":null,"RCS_SIZE":"LARGE","REF_FRAME":"TEME","ARG_OF_PERICENTER":"276.3274","FILE":"3469840","GP_ID":"204805869"},{"OBJECT_ID":"2021-082AU","INCLINATION":"69.9976","TIME_SYSTEM":"UTC","SEMIMAJOR_AXIS":"6955.281","MEAN_ANOMALY":"134.2246","RCS_SIZE":"LARGE","REF_FRAME":"TEME","DECAY_DATE":null,"REV_AT_EPOCH":"130","MEAN_MOTION_DOT":"0.00067409","GP_ID":"204806120","FILE":"3469840","ARG_OF_PERICENTER":"268.7094","MEAN_MOTION":"14.96686079","RA_OF_ASC_NODE":"155.2998","TLE_LINE1":"1 49172U 21082AU  22148.91667824  .00067409  00000-0  58451-2 0  9997","MEAN_MOTION_DDOT":"0.0000000000000","OBJECT_NAME":"STARLINK-3091","ECCENTRICITY":"0.00032180","PERIOD":"96.213","LAUNCH_DATE":"2021-09-14","COUNTRY_CODE":"US","TLE_LINE2":"2 49172  69.9976 155.2998 0003218 268.7094 134.2246 14.96686079  1302","APOAPSIS":"579.384","EPHEMERIS_TYPE":"0","PERIAPSIS":"574.908","OBJECT_TYPE":"PAYLOAD","SITE":"AFWTR","BSTAR":"0.00584510000000","MEAN_ELEMENT_THEORY":"SGP4","ELEMENT_SET_NO":"999","EPOCH":"2022-05-28T22:00:00.999936","CENTER_NAME":"EARTH","CLASSIFICATION_TYPE":"U","NORAD_CAT_ID":"49172"}];
